[{"OBJECT_NAME":"ONEWEB-0323","OBJECT_ID":"2021-075AH","EPOCH":"2026-03-09T20:32:58.303968","MEAN_MOTION":13.12442331,"ECCENTRICITY":0.00017294,"INCLINATION":87.9005,"RA_OF_ASC_NODE":10.3615,"ARG_OF_PERICENTER":56.5546,"MEAN_ANOMALY":303.5748,"EPHEMERIS_TYPE":0,"CLASSIFICATION_TYPE":"U","NORAD_CAT_ID":49106,"ELEMENT_SET_NO":999,"REV_AT_EPOCH":22152,"BSTAR":-0.00083418907,"MEAN_MOTION_DOT":-2.87e-6,"MEAN_MOTION_DDOT":0},{"OBJECT_NAME":"CZ-4C DEB","OBJECT_ID":"2018-034H","EPOCH":"2026-03-08T13:00:38.143296","MEAN_MOTION":13.44717991,"ECCENTRICITY":0.02660069,"INCLINATION":63.3979,"RA_OF_ASC_NODE":358.3879,"ARG_OF_PERICENTER":7.9612,"MEAN_ANOMALY":352.5511,"EPHEMERIS_TYPE":0,"CLASSIFICATION_TYPE":"U","NORAD_CAT_ID":43338,"ELEMENT_SET_NO":999,"REV_AT_EPOCH":38832,"BSTAR":7.5689995e-5,"MEAN_MOTION_DOT":-3.5e-7,"MEAN_MOTION_DDOT":0}]
